<?xml version='1.0' encoding='utf-8'?>
<gpx version="1.1" creator="Weekend Atlas – composite itinerary" xmlns="http://www.topografix.com/GPX/1/1"><metadata><name>P2–Contrin–Mont Seuc–Sanon–P2 summer walking circuit</name><desc>Composite of published summer GPX sections, not one unchanged official trail. Join gaps 2.75 m and 1.79 m. Return joins an identical shared point then retraces the original 15 m starting segment. P2 parking-bay access is estimated separately at 0.2 km round trip; not drawn as verified geometry.</desc><link href="https://www.seiser-alm.it/de/freizeit-aktiv/berge-wandern/seiser-alm-panoramatour/"><text>Peer / Seiser Alm Panorama Tour</text></link><link href="https://www.valgardena.it/en/outdoor/base/outdoor/hike-to-the-sanon-hut-and-contrin/810054383/"><text>Val Gardena / Hike to the Sanon Hut and Contrin</text></link><link href="https://www.dolomitisuperski.com/en/outdoor~Spaziergang-auf-der-Seiser-Alm_51085199~"><text>Dolomiti Superski / Tour on the Seiser Alm</text></link></metadata><trk><name>P2–Contrin–Mont Seuc–Sanon–P2 summer walking circuit</name><trkseg><trkpt lat="46.540179" lon="11.618139" /><trkpt lat="46.540194" lon="11.618384" /><trkpt lat="46.540208" lon="11.618759" /><trkpt lat="46.540214" lon="11.618973" /><trkpt lat="46.540219" lon="11.619241" /><trkpt lat="46.540472" lon="11.619262" /><trkpt lat="46.540518" lon="11.619277" /><trkpt lat="46.540546" lon="11.619331" /><trkpt lat="46.540591" lon="11.61958" /><trkpt lat="46.540649" lon="11.619997" /><trkpt lat="46.540768" lon="11.620217" /><trkpt lat="46.541069" lon="11.621255" /><trkpt lat="46.541148" lon="11.621971" /><trkpt lat="46.54116" lon="11.622461" /><trkpt lat="46.541123" lon="11.622801" /><trkpt lat="46.541068" lon="11.623056" /><trkpt lat="46.541038" lon="11.623491" /><trkpt lat="46.541012" lon="11.623625" /><trkpt lat="46.540939" lon="11.623726" /><trkpt lat="46.540681" lon="11.623871" /><trkpt lat="46.540597" lon="11.623949" /><trkpt lat="46.540544" lon="11.624089" /><trkpt lat="46.540546" lon="11.624299" /><trkpt lat="46.540559" lon="11.624494" /><trkpt lat="46.540566" lon="11.624624" /><trkpt lat="46.540628" lon="11.625441" /><trkpt lat="46.540687" lon="11.625657" /><trkpt lat="46.540787" lon="11.625918" /><trkpt lat="46.540798" lon="11.626013" /><trkpt lat="46.5408" lon="11.627" /><trkpt lat="46.540833" lon="11.627091" /><trkpt lat="46.540991" lon="11.627265" /><trkpt lat="46.54109" lon="11.627574" /><trkpt lat="46.541129" lon="11.627801" /><trkpt lat="46.541142" lon="11.62799" /><trkpt lat="46.541114" lon="11.628325" /><trkpt lat="46.541125" lon="11.628437" /><trkpt lat="46.541181" lon="11.628566" /><trkpt lat="46.541325" lon="11.628747" /><trkpt lat="46.541418" lon="11.628898" /><trkpt lat="46.541461" lon="11.629022" /><trkpt lat="46.541481" lon="11.62917" /><trkpt lat="46.541474" lon="11.629303" /><trkpt lat="46.541453" lon="11.62939" /><trkpt lat="46.541368" lon="11.629569" /><trkpt lat="46.541239" lon="11.629782" /><trkpt lat="46.541205" lon="11.62987" /><trkpt lat="46.541175" lon="11.630074" /><trkpt lat="46.541174" lon="11.630184" /><trkpt lat="46.541111" lon="11.630442" /><trkpt lat="46.541068" lon="11.63064" /><trkpt lat="46.541093" lon="11.630704" /><trkpt lat="46.541112" lon="11.630761" /><trkpt lat="46.541122" lon="11.630846" /><trkpt lat="46.541147" lon="11.631055" /><trkpt lat="46.541401" lon="11.632069" /><trkpt lat="46.541597" lon="11.6325" /><trkpt lat="46.541827" lon="11.632938" /><trkpt lat="46.541886" lon="11.633131" /><trkpt lat="46.541894" lon="11.633241" /><trkpt lat="46.541902" lon="11.633395" /><trkpt lat="46.541904" lon="11.63355" /><trkpt lat="46.541878" lon="11.633766" /><trkpt lat="46.54174" lon="11.634478" /><trkpt lat="46.541612" lon="11.63501" /><trkpt lat="46.541586" lon="11.635154" /><trkpt lat="46.541559" lon="11.635472" /><trkpt lat="46.541561" lon="11.635763" /><trkpt lat="46.541598" lon="11.635957" /><trkpt lat="46.541614" lon="11.636176" /><trkpt lat="46.541584" lon="11.636349" /><trkpt lat="46.541631" lon="11.63694" /><trkpt lat="46.541635" lon="11.63722" /><trkpt lat="46.541627" lon="11.63742" /><trkpt lat="46.541525" lon="11.637984" /><trkpt lat="46.541644" lon="11.6388" /><trkpt lat="46.54163" lon="11.639184" /><trkpt lat="46.541641" lon="11.639441" /><trkpt lat="46.541635" lon="11.639538" /><trkpt lat="46.541568" lon="11.639837" /><trkpt lat="46.541559" lon="11.640135" /><trkpt lat="46.541523" lon="11.640429" /><trkpt lat="46.541436" lon="11.640869" /><trkpt lat="46.541442" lon="11.640965" /><trkpt lat="46.541495" lon="11.641247" /><trkpt lat="46.541462" lon="11.641377" /><trkpt lat="46.541486" lon="11.641505" /><trkpt lat="46.541483" lon="11.64179" /><trkpt lat="46.541553" lon="11.64201" /><trkpt lat="46.541565" lon="11.642175" /><trkpt lat="46.541551" lon="11.642725" /><trkpt lat="46.541496" lon="11.643082" /><trkpt lat="46.541474" lon="11.643352" /><trkpt lat="46.541485" lon="11.643587" /><trkpt lat="46.541535" lon="11.644025" /><trkpt lat="46.541535" lon="11.64419" /><trkpt lat="46.541528" lon="11.644319" /><trkpt lat="46.541578" lon="11.644404" /><trkpt lat="46.541649" lon="11.644605" /><trkpt lat="46.541735" lon="11.644871" /><trkpt lat="46.541833" lon="11.645164" /><trkpt lat="46.541868" lon="11.645214" /><trkpt lat="46.5419" lon="11.64526" /><trkpt lat="46.542052" lon="11.645425" /><trkpt lat="46.542162" lon="11.645497" /><trkpt lat="46.542358" lon="11.64553" /><trkpt lat="46.542433" lon="11.645515" /><trkpt lat="46.542569" lon="11.645557" /><trkpt lat="46.54262" lon="11.645598" /><trkpt lat="46.542656" lon="11.645659" /><trkpt lat="46.542779" lon="11.646242" /><trkpt lat="46.542838" lon="11.646463" /><trkpt lat="46.542901" lon="11.646628" /><trkpt lat="46.543017" lon="11.646893" /><trkpt lat="46.543104" lon="11.647022" /><trkpt lat="46.543652" lon="11.647257" /><trkpt lat="46.543898" lon="11.647271" /><trkpt lat="46.544037" lon="11.64724" /><trkpt lat="46.544208" lon="11.64718" /><trkpt lat="46.544664" lon="11.647014" /><trkpt lat="46.54472" lon="11.646995" /><trkpt lat="46.544824" lon="11.647022" /><trkpt lat="46.544865" lon="11.647065" /><trkpt lat="46.544973" lon="11.64726" /><trkpt lat="46.545009" lon="11.64729" /><trkpt lat="46.545053" lon="11.647296" /><trkpt lat="46.545193" lon="11.647225" /><trkpt lat="46.54542" lon="11.647015" /><trkpt lat="46.545467" lon="11.64702" /><trkpt lat="46.54552" lon="11.64706" /><trkpt lat="46.545541" lon="11.647085" /><trkpt lat="46.545564" lon="11.647113" /><trkpt lat="46.545604" lon="11.647201" /><trkpt lat="46.545655" lon="11.647389" /><trkpt lat="46.545686" lon="11.647433" /><trkpt lat="46.545855" lon="11.647544" /><trkpt lat="46.545894" lon="11.647627" /><trkpt lat="46.545907" lon="11.64772" /><trkpt lat="46.545906" lon="11.647934" /><trkpt lat="46.545969" lon="11.648167" /><trkpt lat="46.546146" lon="11.648462" /><trkpt lat="46.546215" lon="11.64853" /><trkpt lat="46.546286" lon="11.648562" /><trkpt lat="46.546362" lon="11.648577" /><trkpt lat="46.546541" lon="11.648526" /><trkpt lat="46.54687" lon="11.648251" /><trkpt lat="46.547044" lon="11.648027" /><trkpt lat="46.547151" lon="11.647785" /><trkpt lat="46.547224" lon="11.647686" /><trkpt lat="46.547323" lon="11.647587" /><trkpt lat="46.547478" lon="11.647436" /><trkpt lat="46.54772" lon="11.647235" /><trkpt lat="46.547955" lon="11.647048" /><trkpt lat="46.547999" lon="11.647008" /><trkpt lat="46.548068" lon="11.646959" /><trkpt lat="46.548395" lon="11.646924" /><trkpt lat="46.548557" lon="11.646824" /><trkpt lat="46.548834" lon="11.646607" /><trkpt lat="46.548977" lon="11.646528" /><trkpt lat="46.549131" lon="11.646461" /><trkpt lat="46.549242" lon="11.646435" /><trkpt lat="46.54946" lon="11.64647" /><trkpt lat="46.549949" lon="11.64666" /><trkpt lat="46.550119" lon="11.646706" /><trkpt lat="46.550169" lon="11.646656" /><trkpt lat="46.550542" lon="11.646118" /><trkpt lat="46.550648" lon="11.646007" /><trkpt lat="46.550779" lon="11.645985" /><trkpt lat="46.55136" lon="11.645975" /><trkpt lat="46.551458" lon="11.645995" /><trkpt lat="46.551512" lon="11.646027" /><trkpt lat="46.551737" lon="11.646242" /><trkpt lat="46.551896" lon="11.646437" /><trkpt lat="46.552007" lon="11.646573" /><trkpt lat="46.552199" lon="11.64673" /><trkpt lat="46.552444" lon="11.646999" /><trkpt lat="46.552793" lon="11.647331" /><trkpt lat="46.552993" lon="11.647577" /><trkpt lat="46.553091" lon="11.647662" /><trkpt lat="46.553241" lon="11.64783" /><trkpt lat="46.553328" lon="11.647964" /><trkpt lat="46.553334" lon="11.647969" /><trkpt lat="46.553436" lon="11.648057" /><trkpt lat="46.553678" lon="11.648784" /><trkpt lat="46.553726" lon="11.648887" /><trkpt lat="46.553806" lon="11.648976" /><trkpt lat="46.553929" lon="11.649067" /><trkpt lat="46.554024" lon="11.649102" /><trkpt lat="46.554162" lon="11.649206" /><trkpt lat="46.554214" lon="11.649276" /><trkpt lat="46.55424" lon="11.649301" /><trkpt lat="46.554272" lon="11.64937" /><trkpt lat="46.554324" lon="11.649691" /><trkpt lat="46.554489" lon="11.650297" /><trkpt lat="46.554585" lon="11.650753" /><trkpt lat="46.55463" lon="11.650916" /><trkpt lat="46.554738" lon="11.651153" /><trkpt lat="46.554932" lon="11.651936" /><trkpt lat="46.555" lon="11.652148" /><trkpt lat="46.555052" lon="11.65227" /><trkpt lat="46.555177" lon="11.652453" /><trkpt lat="46.555458" lon="11.6527" /><trkpt lat="46.555547" lon="11.652804" /><trkpt lat="46.555644" lon="11.652966" /><trkpt lat="46.55568" lon="11.653142" /><trkpt lat="46.555698" lon="11.653411" /><trkpt lat="46.555732" lon="11.653545" /><trkpt lat="46.555832" lon="11.65375" /><trkpt lat="46.555865" lon="11.653819" /><trkpt lat="46.555892" lon="11.653934" /><trkpt lat="46.556042" lon="11.654212" /><trkpt lat="46.556332" lon="11.654971" /><trkpt lat="46.556465" lon="11.65532" /><trkpt lat="46.556565" lon="11.655498" /><trkpt lat="46.556569" lon="11.655694" /><trkpt lat="46.556658" lon="11.655956" /><trkpt lat="46.556687" lon="11.656129" /><trkpt lat="46.556788" lon="11.656503" /><trkpt lat="46.556867" lon="11.656709" /><trkpt lat="46.556922" lon="11.656999" /><trkpt lat="46.55692" lon="11.657102" /><trkpt lat="46.556897" lon="11.657307" /><trkpt lat="46.556896" lon="11.65766" /><trkpt lat="46.55697" lon="11.658249" /><trkpt lat="46.557005" lon="11.658435" /><trkpt lat="46.557096" lon="11.65873" /><trkpt lat="46.557291" lon="11.659175" /><trkpt lat="46.557301" lon="11.659273" /><trkpt lat="46.557269" lon="11.65966" /><trkpt lat="46.557327" lon="11.660059" /><trkpt lat="46.557414" lon="11.660393" /><trkpt lat="46.557452" lon="11.66079" /><trkpt lat="46.55745" lon="11.660941" /><trkpt lat="46.557649" lon="11.662072" /><trkpt lat="46.557687" lon="11.662222" /><trkpt lat="46.557912" lon="11.662839" /><trkpt lat="46.558074" lon="11.663531" /><trkpt lat="46.558073" lon="11.663766" /><trkpt lat="46.55803" lon="11.663932" /><trkpt lat="46.558" lon="11.663976" /><trkpt lat="46.55796" lon="11.664042" /><trkpt lat="46.557924" lon="11.664128" /><trkpt lat="46.557913" lon="11.664239" /><trkpt lat="46.557918" lon="11.66456" /><trkpt lat="46.557883" lon="11.664631" /><trkpt lat="46.557884" lon="11.664667" /><trkpt lat="46.557883" lon="11.664676" /><trkpt lat="46.557881" lon="11.664782" /><trkpt lat="46.557891" lon="11.664912" /><trkpt lat="46.557906" lon="11.665049" /><trkpt lat="46.557923" lon="11.66513" /><trkpt lat="46.557944" lon="11.665214" /><trkpt lat="46.557987" lon="11.665414" /><trkpt lat="46.55802" lon="11.665579" /><trkpt lat="46.558031" lon="11.665667" /><trkpt lat="46.558032" lon="11.665727" /><trkpt lat="46.558018" lon="11.665856" /><trkpt lat="46.557999" lon="11.666011" /><trkpt lat="46.557959" lon="11.666267" /><trkpt lat="46.557928" lon="11.66647" /><trkpt lat="46.557897" lon="11.666693" /><trkpt lat="46.557875" lon="11.666825" /><trkpt lat="46.557865" lon="11.666915" /><trkpt lat="46.557859" lon="11.667063" /><trkpt lat="46.557859" lon="11.667276" /><trkpt lat="46.557868" lon="11.667477" /><trkpt lat="46.557875" lon="11.667641" /><trkpt lat="46.557867" lon="11.667751" /><trkpt lat="46.557854" lon="11.667826" /><trkpt lat="46.557812" lon="11.667953" /><trkpt lat="46.55777" lon="11.668057" /><trkpt lat="46.557706" lon="11.668233" /><trkpt lat="46.55763" lon="11.668468" /><trkpt lat="46.557556" lon="11.668723" /><trkpt lat="46.55753" lon="11.668824" /><trkpt lat="46.557506" lon="11.668952" /><trkpt lat="46.557485" lon="11.669092" /><trkpt lat="46.557473" lon="11.669168" /><trkpt lat="46.557459" lon="11.669197" /><trkpt lat="46.55744" lon="11.669215" /><trkpt lat="46.557414" lon="11.669218" /><trkpt lat="46.55738" lon="11.669197" /><trkpt lat="46.557355" lon="11.669154" /><trkpt lat="46.557331" lon="11.669054" /><trkpt lat="46.557315" lon="11.668962" /><trkpt lat="46.557283" lon="11.668709" /><trkpt lat="46.557265" lon="11.668574" /><trkpt lat="46.557239" lon="11.668501" /><trkpt lat="46.557189" lon="11.668344" /><trkpt lat="46.557171" lon="11.668218" /><trkpt lat="46.557139" lon="11.66785" /><trkpt lat="46.55712" lon="11.667653" /><trkpt lat="46.557083" lon="11.667454" /><trkpt lat="46.557053" lon="11.667259" /><trkpt lat="46.557027" lon="11.667119" /><trkpt lat="46.557007" lon="11.666973" /><trkpt lat="46.557001" lon="11.666916" /><trkpt lat="46.556988" lon="11.666789" /><trkpt lat="46.556965" lon="11.666651" /><trkpt lat="46.556924" lon="11.666489" /><trkpt lat="46.556863" lon="11.6663" /><trkpt lat="46.556794" lon="11.666103" /><trkpt lat="46.556775" lon="11.666019" /><trkpt lat="46.556756" lon="11.665911" /><trkpt lat="46.556752" lon="11.665889" /><trkpt lat="46.556727" lon="11.665724" /><trkpt lat="46.556702" lon="11.665598" /><trkpt lat="46.556672" lon="11.665501" /><trkpt lat="46.556648" lon="11.665443" /><trkpt lat="46.556602" lon="11.665361" /><trkpt lat="46.556519" lon="11.66522" /><trkpt lat="46.556411" lon="11.665048" /><trkpt lat="46.55633" lon="11.664907" /><trkpt lat="46.556234" lon="11.664739" /><trkpt lat="46.556129" lon="11.664556" /><trkpt lat="46.556041" lon="11.664403" /><trkpt lat="46.555973" lon="11.664263" /><trkpt lat="46.555959" lon="11.664231" /><trkpt lat="46.555923" lon="11.664147" /><trkpt lat="46.555899" lon="11.664066" /><trkpt lat="46.555881" lon="11.663959" /><trkpt lat="46.555869" lon="11.663879" /><trkpt lat="46.555865" lon="11.663742" /><trkpt lat="46.555868" lon="11.663609" /><trkpt lat="46.555872" lon="11.663508" /><trkpt lat="46.555858" lon="11.663443" /><trkpt lat="46.55582" lon="11.663357" /><trkpt lat="46.55577" lon="11.663287" /><trkpt lat="46.55568" lon="11.663206" /><trkpt lat="46.555601" lon="11.663155" /><trkpt lat="46.55555" lon="11.663088" /><trkpt lat="46.55552" lon="11.663026" /><trkpt lat="46.555496" lon="11.662941" /><trkpt lat="46.555487" lon="11.662857" /><trkpt lat="46.555483" lon="11.66269" /><trkpt lat="46.555486" lon="11.662523" /><trkpt lat="46.555486" lon="11.662406" /><trkpt lat="46.555486" lon="11.662277" /><trkpt lat="46.555468" lon="11.662151" /><trkpt lat="46.555436" lon="11.661981" /><trkpt lat="46.555399" lon="11.661815" /><trkpt lat="46.555362" lon="11.661619" /><trkpt lat="46.555296" lon="11.661357" /><trkpt lat="46.55525" lon="11.661148" /><trkpt lat="46.555212" lon="11.661021" /><trkpt lat="46.555175" lon="11.660941" /><trkpt lat="46.555125" lon="11.660896" /><trkpt lat="46.555046" lon="11.660849" /><trkpt lat="46.55494" lon="11.660801" /><trkpt lat="46.554854" lon="11.660779" /><trkpt lat="46.554759" lon="11.660774" /><trkpt lat="46.55467" lon="11.660774" /><trkpt lat="46.554575" lon="11.66077" /><trkpt lat="46.554492" lon="11.660757" /><trkpt lat="46.554403" lon="11.660727" /><trkpt lat="46.554276" lon="11.660682" /><trkpt lat="46.554196" lon="11.660661" /><trkpt lat="46.554235" lon="11.660766" /><trkpt lat="46.55426" lon="11.660871" /><trkpt lat="46.554283" lon="11.661027" /><trkpt lat="46.554322" lon="11.66115" /><trkpt lat="46.554373" lon="11.661256" /><trkpt lat="46.554444" lon="11.661376" /><trkpt lat="46.55451" lon="11.661487" /><trkpt lat="46.554585" lon="11.66162" /><trkpt lat="46.554618" lon="11.661708" /><trkpt lat="46.554628" lon="11.661786" /><trkpt lat="46.554632" lon="11.661881" /><trkpt lat="46.554611" lon="11.662014" /><trkpt lat="46.554573" lon="11.662198" /><trkpt lat="46.554539" lon="11.662306" /><trkpt lat="46.554503" lon="11.662376" /><trkpt lat="46.554468" lon="11.662416" /><trkpt lat="46.554428" lon="11.662441" /><trkpt lat="46.554381" lon="11.662446" /><trkpt lat="46.554334" lon="11.662429" /><trkpt lat="46.554256" lon="11.662395" /><trkpt lat="46.55421" lon="11.662381" /><trkpt lat="46.554173" lon="11.662391" /><trkpt lat="46.554151" lon="11.66242" /><trkpt lat="46.554139" lon="11.662469" /><trkpt lat="46.55409" lon="11.662461" /><trkpt lat="46.554032" lon="11.662462" /><trkpt lat="46.553982" lon="11.662473" /><trkpt lat="46.553931" lon="11.662518" /><trkpt lat="46.553903" lon="11.662547" /><trkpt lat="46.553853" lon="11.66258" /><trkpt lat="46.553801" lon="11.662523" /><trkpt lat="46.553755" lon="11.662455" /><trkpt lat="46.553713" lon="11.66238" /><trkpt lat="46.553671" lon="11.662299" /><trkpt lat="46.553626" lon="11.662221" /><trkpt lat="46.55356" lon="11.662075" /><trkpt lat="46.553518" lon="11.662005" /><trkpt lat="46.553468" lon="11.661942" /><trkpt lat="46.553413" lon="11.661893" /><trkpt lat="46.55335" lon="11.661852" /><trkpt lat="46.553287" lon="11.661815" /><trkpt lat="46.553224" lon="11.661775" /><trkpt lat="46.553164" lon="11.661733" /><trkpt lat="46.553105" lon="11.661673" /><trkpt lat="46.553049" lon="11.661613" /><trkpt lat="46.552986" lon="11.661566" /><trkpt lat="46.55292" lon="11.661539" /><trkpt lat="46.552859" lon="11.661496" /><trkpt lat="46.552806" lon="11.661439" /><trkpt lat="46.552758" lon="11.661373" /><trkpt lat="46.552711" lon="11.661299" /><trkpt lat="46.552666" lon="11.661224" /><trkpt lat="46.55261" lon="11.661163" /><trkpt lat="46.55257" lon="11.661078" /><trkpt lat="46.552538" lon="11.660988" /><trkpt lat="46.552521" lon="11.660897" /><trkpt lat="46.552526" lon="11.660794" /><trkpt lat="46.552539" lon="11.660697" /><trkpt lat="46.552558" lon="11.660603" /><trkpt lat="46.552564" lon="11.660538" /><trkpt lat="46.552558" lon="11.660476" /><trkpt lat="46.552535" lon="11.660431" /><trkpt lat="46.55249" lon="11.660357" /><trkpt lat="46.552444" lon="11.660287" /><trkpt lat="46.552395" lon="11.660216" /><trkpt lat="46.552346" lon="11.660148" /><trkpt lat="46.5523" lon="11.66008" /><trkpt lat="46.552258" lon="11.660013" /><trkpt lat="46.552215" lon="11.659946" /><trkpt lat="46.552191" lon="11.659909" /><trkpt lat="46.552171" lon="11.659866" /><trkpt lat="46.552145" lon="11.659821" /><trkpt lat="46.552116" lon="11.659756" /><trkpt lat="46.552086" lon="11.659689" /><trkpt lat="46.552053" lon="11.659628" /><trkpt lat="46.552027" lon="11.659568" /><trkpt lat="46.552004" lon="11.659511" /><trkpt lat="46.551982" lon="11.659457" /><trkpt lat="46.551959" lon="11.659397" /><trkpt lat="46.551931" lon="11.659336" /><trkpt lat="46.551901" lon="11.659276" /><trkpt lat="46.551866" lon="11.659211" /><trkpt lat="46.55185" lon="11.659148" /><trkpt lat="46.551831" lon="11.659095" /><trkpt lat="46.551807" lon="11.659038" /><trkpt lat="46.551776" lon="11.65897" /><trkpt lat="46.551744" lon="11.658903" /><trkpt lat="46.551715" lon="11.658833" /><trkpt lat="46.551681" lon="11.658764" /><trkpt lat="46.55165" lon="11.658688" /><trkpt lat="46.551623" lon="11.658595" /><trkpt lat="46.55159" lon="11.658542" /><trkpt lat="46.551567" lon="11.658485" /><trkpt lat="46.551538" lon="11.658413" /><trkpt lat="46.551519" lon="11.658344" /><trkpt lat="46.551499" lon="11.658272" /><trkpt lat="46.551471" lon="11.658244" /><trkpt lat="46.551407" lon="11.658295" /><trkpt lat="46.551395" lon="11.658333" /><trkpt lat="46.551377" lon="11.658357" /><trkpt lat="46.551353" lon="11.658381" /><trkpt lat="46.551321" lon="11.65839" /><trkpt lat="46.551265" lon="11.658383" /><trkpt lat="46.551207" lon="11.658388" /><trkpt lat="46.551141" lon="11.658391" /><trkpt lat="46.551078" lon="11.658388" /><trkpt lat="46.551013" lon="11.658377" /><trkpt lat="46.55096" lon="11.658381" /><trkpt lat="46.550913" lon="11.658405" /><trkpt lat="46.550861" lon="11.658425" /><trkpt lat="46.550801" lon="11.658451" /><trkpt lat="46.550752" lon="11.65848" /><trkpt lat="46.550699" lon="11.658513" /><trkpt lat="46.550642" lon="11.658539" /><trkpt lat="46.550571" lon="11.658558" /><trkpt lat="46.550507" lon="11.65857" /><trkpt lat="46.550451" lon="11.658577" /><trkpt lat="46.550403" lon="11.658598" /><trkpt lat="46.550353" lon="11.658618" /><trkpt lat="46.550313" lon="11.658645" /><trkpt lat="46.550276" lon="11.65866" /><trkpt lat="46.550239" lon="11.658657" /><trkpt lat="46.550199" lon="11.658647" /><trkpt lat="46.550162" lon="11.658638" /><trkpt lat="46.550118" lon="11.658628" /><trkpt lat="46.550076" lon="11.658612" /><trkpt lat="46.55003" lon="11.658598" /><trkpt lat="46.549985" lon="11.658586" /><trkpt lat="46.549939" lon="11.658575" /><trkpt lat="46.549906" lon="11.658559" /><trkpt lat="46.549868" lon="11.658542" /><trkpt lat="46.549825" lon="11.658519" /><trkpt lat="46.549779" lon="11.658493" /><trkpt lat="46.549736" lon="11.658466" /><trkpt lat="46.549692" lon="11.658444" /><trkpt lat="46.549658" lon="11.658425" /><trkpt lat="46.54961" lon="11.658389" /><trkpt lat="46.549561" lon="11.658344" /><trkpt lat="46.549513" lon="11.658301" /><trkpt lat="46.54947" lon="11.658243" /><trkpt lat="46.549425" lon="11.65819" /><trkpt lat="46.549385" lon="11.658137" /><trkpt lat="46.549348" lon="11.658076" /><trkpt lat="46.549305" lon="11.65802" /><trkpt lat="46.549268" lon="11.657965" /><trkpt lat="46.54923" lon="11.657912" /><trkpt lat="46.549194" lon="11.657852" /><trkpt lat="46.549156" lon="11.65779" /><trkpt lat="46.549121" lon="11.657728" /><trkpt lat="46.549087" lon="11.657668" /><trkpt lat="46.54905" lon="11.657608" /><trkpt lat="46.549019" lon="11.657557" /><trkpt lat="46.548986" lon="11.6575" /><trkpt lat="46.548951" lon="11.657455" /><trkpt lat="46.548916" lon="11.657405" /><trkpt lat="46.548883" lon="11.657357" /><trkpt lat="46.548853" lon="11.657303" /><trkpt lat="46.548822" lon="11.657249" /><trkpt lat="46.548789" lon="11.657202" /><trkpt lat="46.548762" lon="11.657146" /><trkpt lat="46.54873" lon="11.657095" /><trkpt lat="46.548697" lon="11.657041" /><trkpt lat="46.548662" lon="11.656994" /><trkpt lat="46.54863" lon="11.656949" /><trkpt lat="46.5486" lon="11.656902" /><trkpt lat="46.548566" lon="11.656855" /><trkpt lat="46.548527" lon="11.656804" /><trkpt lat="46.548492" lon="11.656745" /><trkpt lat="46.54847" lon="11.65671" /><trkpt lat="46.54844" lon="11.656643" /><trkpt lat="46.54841" lon="11.656582" /><trkpt lat="46.548379" lon="11.656519" /><trkpt lat="46.548344" lon="11.656462" /><trkpt lat="46.548308" lon="11.656414" /><trkpt lat="46.54827" lon="11.656368" /><trkpt lat="46.548231" lon="11.656316" /><trkpt lat="46.548205" lon="11.656274" /><trkpt lat="46.548168" lon="11.656228" /><trkpt lat="46.548144" lon="11.656165" /><trkpt lat="46.548126" lon="11.656095" /><trkpt lat="46.548103" lon="11.65603" /><trkpt lat="46.548083" lon="11.655957" /><trkpt lat="46.548059" lon="11.65589" /><trkpt lat="46.548034" lon="11.655826" /><trkpt lat="46.54801" lon="11.655759" /><trkpt lat="46.547981" lon="11.655695" /><trkpt lat="46.54794" lon="11.655626" /><trkpt lat="46.54791" lon="11.655577" /><trkpt lat="46.547878" lon="11.65553" /><trkpt lat="46.547832" lon="11.655463" /><trkpt lat="46.547785" lon="11.655405" /><trkpt lat="46.547745" lon="11.655348" /><trkpt lat="46.5477" lon="11.655279" /><trkpt lat="46.547676" lon="11.655258" /><trkpt lat="46.547621" lon="11.65524" /><trkpt lat="46.54762" lon="11.655239" /><trkpt lat="46.547568" lon="11.655187" /><trkpt lat="46.547527" lon="11.65511" /><trkpt lat="46.547499" lon="11.655022" /><trkpt lat="46.54746" lon="11.654954" /><trkpt lat="46.547405" lon="11.654906" /><trkpt lat="46.547343" lon="11.654874" /><trkpt lat="46.547286" lon="11.65483" /><trkpt lat="46.547232" lon="11.654779" /><trkpt lat="46.547174" lon="11.654745" /><trkpt lat="46.547108" lon="11.65472" /><trkpt lat="46.547043" lon="11.654699" /><trkpt lat="46.546977" lon="11.654681" /><trkpt lat="46.546914" lon="11.654647" /><trkpt lat="46.546838" lon="11.654613" /><trkpt lat="46.546827" lon="11.654596" /><trkpt lat="46.546505" lon="11.654401" /><trkpt lat="46.546302" lon="11.654305" /><trkpt lat="46.545984" lon="11.654334" /><trkpt lat="46.545676" lon="11.654273" /><trkpt lat="46.545572" lon="11.654312" /><trkpt lat="46.545533" lon="11.654244" /><trkpt lat="46.545475" lon="11.654191" /><trkpt lat="46.545365" lon="11.654155" /><trkpt lat="46.545207" lon="11.654118" /><trkpt lat="46.544951" lon="11.654013" /><trkpt lat="46.544796" lon="11.653984" /><trkpt lat="46.544624" lon="11.653975" /><trkpt lat="46.544513" lon="11.653933" /><trkpt lat="46.544218" lon="11.653782" /><trkpt lat="46.543999" lon="11.653616" /><trkpt lat="46.54372" lon="11.653361" /><trkpt lat="46.543493" lon="11.653195" /><trkpt lat="46.543379" lon="11.65303" /><trkpt lat="46.543306" lon="11.652883" /><trkpt lat="46.543249" lon="11.652746" /><trkpt lat="46.54322" lon="11.65252" /><trkpt lat="46.543219" lon="11.652197" /><trkpt lat="46.543212" lon="11.651736" /><trkpt lat="46.543203" lon="11.651524" /><trkpt lat="46.543225" lon="11.651141" /><trkpt lat="46.543184" lon="11.650759" /><trkpt lat="46.543204" lon="11.650506" /><trkpt lat="46.543218" lon="11.650014" /><trkpt lat="46.543192" lon="11.649676" /><trkpt lat="46.543166" lon="11.649338" /><trkpt lat="46.543159" lon="11.649162" /><trkpt lat="46.543139" lon="11.648963" /><trkpt lat="46.543114" lon="11.64872" /><trkpt lat="46.543066" lon="11.648378" /><trkpt lat="46.543014" lon="11.647992" /><trkpt lat="46.542977" lon="11.647777" /><trkpt lat="46.542961" lon="11.647619" /><trkpt lat="46.542929" lon="11.647199" /><trkpt lat="46.542912" lon="11.646923" /><trkpt lat="46.542896" lon="11.646613" /><trkpt lat="46.542838" lon="11.646463" /><trkpt lat="46.542779" lon="11.646242" /><trkpt lat="46.542706" lon="11.645858" /><trkpt lat="46.542656" lon="11.64566" /><trkpt lat="46.54257" lon="11.645557" /><trkpt lat="46.542433" lon="11.645515" /><trkpt lat="46.542358" lon="11.64553" /><trkpt lat="46.542263" lon="11.645524" /><trkpt lat="46.542162" lon="11.645497" /><trkpt lat="46.542052" lon="11.645425" /><trkpt lat="46.54197" lon="11.645346" /><trkpt lat="46.5419" lon="11.64526" /><trkpt lat="46.541833" lon="11.645164" /><trkpt lat="46.541735" lon="11.644871" /><trkpt lat="46.541649" lon="11.644605" /><trkpt lat="46.541578" lon="11.644404" /><trkpt lat="46.541528" lon="11.644319" /><trkpt lat="46.541535" lon="11.644025" /><trkpt lat="46.541515" lon="11.643832" /><trkpt lat="46.541485" lon="11.643587" /><trkpt lat="46.541474" lon="11.643353" /><trkpt lat="46.541482" lon="11.643195" /><trkpt lat="46.541551" lon="11.642725" /><trkpt lat="46.541569" lon="11.642291" /><trkpt lat="46.541553" lon="11.64201" /><trkpt lat="46.541483" lon="11.64179" /><trkpt lat="46.541486" lon="11.641505" /><trkpt lat="46.541462" lon="11.641377" /><trkpt lat="46.541495" lon="11.641247" /><trkpt lat="46.541436" lon="11.640869" /><trkpt lat="46.541493" lon="11.64062" /><trkpt lat="46.541523" lon="11.640429" /><trkpt lat="46.541559" lon="11.640135" /><trkpt lat="46.541568" lon="11.639838" /><trkpt lat="46.541606" lon="11.639692" /><trkpt lat="46.541635" lon="11.639539" /><trkpt lat="46.541641" lon="11.639441" /><trkpt lat="46.54163" lon="11.639185" /><trkpt lat="46.541644" lon="11.6388" /><trkpt lat="46.541631" lon="11.638676" /><trkpt lat="46.541603" lon="11.638506" /><trkpt lat="46.541571" lon="11.63833" /><trkpt lat="46.541532" lon="11.638088" /><trkpt lat="46.541525" lon="11.637984" /><trkpt lat="46.541568" lon="11.637724" /><trkpt lat="46.541601" lon="11.637566" /><trkpt lat="46.541627" lon="11.63742" /><trkpt lat="46.541635" lon="11.63722" /><trkpt lat="46.541631" lon="11.63694" /><trkpt lat="46.541609" lon="11.636576" /><trkpt lat="46.541584" lon="11.636349" /><trkpt lat="46.541614" lon="11.636176" /><trkpt lat="46.541598" lon="11.635957" /><trkpt lat="46.541561" lon="11.635763" /><trkpt lat="46.541559" lon="11.635472" /><trkpt lat="46.541568" lon="11.635313" /><trkpt lat="46.541586" lon="11.635154" /><trkpt lat="46.541612" lon="11.63501" /><trkpt lat="46.54174" lon="11.634478" /><trkpt lat="46.541837" lon="11.633983" /><trkpt lat="46.541878" lon="11.633766" /><trkpt lat="46.541894" lon="11.633662" /><trkpt lat="46.541902" lon="11.633396" /><trkpt lat="46.54188" lon="11.633087" /><trkpt lat="46.541836" lon="11.632962" /><trkpt lat="46.541709" lon="11.632729" /><trkpt lat="46.541597" lon="11.632503" /><trkpt lat="46.541529" lon="11.632369" /><trkpt lat="46.541401" lon="11.632069" /><trkpt lat="46.54132" lon="11.631776" /><trkpt lat="46.541147" lon="11.631055" /><trkpt lat="46.541112" lon="11.630761" /><trkpt lat="46.541034" lon="11.63055" /><trkpt lat="46.540962" lon="11.630389" /><trkpt lat="46.540853" lon="11.63018" /><trkpt lat="46.540758" lon="11.630019" /><trkpt lat="46.540642" lon="11.629861" /><trkpt lat="46.540421" lon="11.629574" /><trkpt lat="46.540353" lon="11.62947" /><trkpt lat="46.540295" lon="11.629329" /><trkpt lat="46.540198" lon="11.628951" /><trkpt lat="46.540153" lon="11.628652" /><trkpt lat="46.54013" lon="11.628418" /><trkpt lat="46.540068" lon="11.627858" /><trkpt lat="46.540004" lon="11.62739" /><trkpt lat="46.539986" lon="11.627301" /><trkpt lat="46.539928" lon="11.627098" /><trkpt lat="46.539886" lon="11.626923" /><trkpt lat="46.53987" lon="11.626804" /><trkpt lat="46.539878" lon="11.626548" /><trkpt lat="46.5399" lon="11.626155" /><trkpt lat="46.539922" lon="11.625761" /><trkpt lat="46.539944" lon="11.625311" /><trkpt lat="46.539981" lon="11.624721" /><trkpt lat="46.539952" lon="11.62465" /><trkpt lat="46.540009" lon="11.623969" /><trkpt lat="46.54003" lon="11.623444" /><trkpt lat="46.540054" lon="11.623095" /><trkpt lat="46.540081" lon="11.622958" /><trkpt lat="46.540086" lon="11.622678" /><trkpt lat="46.540094" lon="11.622344" /><trkpt lat="46.540114" lon="11.621954" /><trkpt lat="46.540134" lon="11.621564" /><trkpt lat="46.540154" lon="11.621056" /><trkpt lat="46.540171" lon="11.620652" /><trkpt lat="46.540188" lon="11.620248" /><trkpt lat="46.540211" lon="11.619732" /><trkpt lat="46.54031" lon="11.619752" /><trkpt lat="46.540459" lon="11.619761" /><trkpt lat="46.540539" lon="11.619795" /><trkpt lat="46.540599" lon="11.61988" /><trkpt lat="46.540649" lon="11.619998" /><trkpt lat="46.540591" lon="11.619581" /><trkpt lat="46.540563" lon="11.619412" /><trkpt lat="46.540518" lon="11.619277" /><trkpt lat="46.540219" lon="11.619241" /><trkpt lat="46.540214" lon="11.618973" /><trkpt lat="46.540208" lon="11.618759" /><trkpt lat="46.540194" lon="11.618384" /><trkpt lat="46.540179" lon="11.618139" /></trkseg></trk></gpx>